MR-2                    
1 67556U 26015A   26050.14597378  .00000064  00000+0  78367-4 0  9994
2 67556  88.9962 280.5484 0005018  71.6792 288.4906 13.52686678  3754
MR-1                    
1 67557U 26015B   26050.14647918  .00000069  00000+0  85617-4 0  9992
2 67557  88.9962 280.5485 0005090  70.4541 289.7160 13.52661832  3756
ELECTRON R/B            
1 67558U 26015C   26050.39609231  .05461805 -15216-5  11266-2 0  9999
2 67558  88.9582 279.6095 0231879 164.5034 196.3513 15.87961311  4244
ELECTRON KICK STAGE R/B 
1 67559U 26015D   26050.17765013  .00044694 -17122-6  74781-3 0  9996
2 67559  89.0491 280.1000 0527045 237.9516 116.9487 14.68628888  4078
STARLINK-36426          
1 67560U 26014AA  26050.12076075  .00331933  00000+0  21323-2 0  9992
2 67560  97.2833 294.1888 0002786  66.7396 293.4162 15.75282314  5648
STARLINK-36621          
1 67561U 26016A   26050.11309478  .00119649  00000+0  79047-3 0  9995
2 67561  97.2824 109.6004 0002166 111.8966 248.2530 15.75229183  3871
STARLINK-36398          
1 67562U 26016B   26050.12049539  .00220034  00000+0  14312-2 0  9990
2 67562  97.2824 109.5882 0000896  68.0971 292.0389 15.75305465  3879
STARLINK-36403          
1 67563U 26016C   26050.08032587  .00152945  00000+0  78269-3 0  9998
2 67563  97.2835 109.6463 0001874 123.8387 236.3060 15.80888321  3876
STARLINK-36593          
1 67564U 26016D   26050.25002315 -.01911187  00000+0 -13483-1 0  9993
2 67564  97.2842 109.8269 0001674  73.7421 172.6397 15.77170152  5027
STARLINK-35725          
1 67565U 26016E   26050.10074433  .00289905  00000+0  18687-2 0  9993
2 67565  97.2829 109.6173 0001101 123.8107 236.3263 15.75321000  3877
STARLINK-36394          
1 67566U 26016F   26050.10251222  .00284951  00000+0  18395-2 0  9999
2 67566  97.2837 109.6116 0000889 109.6821 250.4540 15.75299305  3878
STARLINK-36352          
1 67567U 26016G   26050.13874151  .00244282  00000+0  12346-2 0  9998
2 67567  97.2831 109.7160 0001807 102.4210 257.7261 15.80924326  3882
